{"fetched_at":"2026-07-13T07:47:56.614Z","source":"https://celestrak.org/NORAD/elements/gp.php?GROUP=planet&FORMAT=JSON","constellation":"superdove","records":[{"OBJECT_NAME":"FLOCK 4G-17","OBJECT_ID":"2025-009CA","EPOCH":"2026-07-12T18:34:19.909056","CLASSIFICATION_TYPE":"U","MEAN_MOTION":15.30053641,"ECCENTRICITY":0.0003803,"INCLINATION":97.3927,"RA_OF_ASC_NODE":275.0118,"ARG_OF_PERICENTER":223.6555,"MEAN_ANOMALY":136.4385,"EPHEMERIS_TYPE":0,"NORAD_CAT_ID":62681,"ELEMENT_SET_NO":999,"REV_AT_EPOCH":14046,"BSTAR":0.00027089,"MEAN_MOTION_DOT":0.00007805,"MEAN_MOTION_DDOT":0},{"OBJECT_NAME":"FLOCK 4G-33","OBJECT_ID":"2025-009CE","EPOCH":"2026-07-12T18:17:50.572032","CLASSIFICATION_TYPE":"U","MEAN_MOTION":15.25782435,"ECCENTRICITY":0.0004429,"INCLINATION":97.3944,"RA_OF_ASC_NODE":273.3437,"ARG_OF_PERICENTER":224.2352,"MEAN_ANOMALY":135.8532,"EPHEMERIS_TYPE":0,"NORAD_CAT_ID":62685,"ELEMENT_SET_NO":999,"REV_AT_EPOCH":8270,"BSTAR":0.00015712,"MEAN_MOTION_DOT":0.00003941,"MEAN_MOTION_DDOT":0},{"OBJECT_NAME":"FLOCK 4H-1","OBJECT_ID":"2025-276AQ","EPOCH":"2026-07-12T15:29:53.003040","CLASSIFICATION_TYPE":"U","MEAN_MOTION":15.20832307,"ECCENTRICITY":0.0001788,"INCLINATION":97.4175,"RA_OF_ASC_NODE":266.9317,"ARG_OF_PERICENTER":181.1906,"MEAN_ANOMALY":178.9325,"EPHEMERIS_TYPE":0,"NORAD_CAT_ID":66704,"ELEMENT_SET_NO":999,"REV_AT_EPOCH":3430,"BSTAR":0.00016766,"MEAN_MOTION_DOT":0.0000363,"MEAN_MOTION_DDOT":0},{"OBJECT_NAME":"FLOCK 4H-2","OBJECT_ID":"2025-276AR","EPOCH":"2026-07-12T18:02:07.151424","CLASSIFICATION_TYPE":"U","MEAN_MOTION":15.21104853,"ECCENTRICITY":0.0001303,"INCLINATION":97.4171,"RA_OF_ASC_NODE":267.0834,"ARG_OF_PERICENTER":157.7249,"MEAN_ANOMALY":202.4043,"EPHEMERIS_TYPE":0,"NORAD_CAT_ID":66705,"ELEMENT_SET_NO":999,"REV_AT_EPOCH":3432,"BSTAR":0.00020371,"MEAN_MOTION_DOT":0.00004462,"MEAN_MOTION_DDOT":0},{"OBJECT_NAME":"FLOCK 4H-3","OBJECT_ID":"2025-276AS","EPOCH":"2026-07-12T16:10:56.743968","CLASSIFICATION_TYPE":"U","MEAN_MOTION":15.20224767,"ECCENTRICITY":0.0002381,"INCLINATION":97.4241,"RA_OF_ASC_NODE":266.9332,"ARG_OF_PERICENTER":263.4983,"MEAN_ANOMALY":96.5981,"EPHEMERIS_TYPE":0,"NORAD_CAT_ID":66706,"ELEMENT_SET_NO":999,"REV_AT_EPOCH":3429,"BSTAR":0.00018987,"MEAN_MOTION_DOT":0.00004048,"MEAN_MOTION_DDOT":0},{"OBJECT_NAME":"FLOCK 4H-4","OBJECT_ID":"2025-276AT","EPOCH":"2026-07-12T18:37:11.094240","CLASSIFICATION_TYPE":"U","MEAN_MOTION":15.20017498,"ECCENTRICITY":0.0003051,"INCLINATION":97.4223,"RA_OF_ASC_NODE":266.9015,"ARG_OF_PERICENTER":267.8071,"MEAN_ANOMALY":92.2814,"EPHEMERIS_TYPE":0,"NORAD_CAT_ID":66707,"ELEMENT_SET_NO":999,"REV_AT_EPOCH":3430,"BSTAR":0.0001986,"MEAN_MOTION_DOT":0.00004212,"MEAN_MOTION_DDOT":0},{"OBJECT_NAME":"FLOCK 4H-5","OBJECT_ID":"2025-276AU","EPOCH":"2026-07-12T15:18:52.083648","CLASSIFICATION_TYPE":"U","MEAN_MOTION":15.20884069,"ECCENTRICITY":0.0001176,"INCLINATION":97.4175,"RA_OF_ASC_NODE":266.9451,"ARG_OF_PERICENTER":133.2525,"MEAN_ANOMALY":226.8808,"EPHEMERIS_TYPE":0,"NORAD_CAT_ID":66708,"ELEMENT_SET_NO":999,"REV_AT_EPOCH":3430,"BSTAR":0.00016371,"MEAN_MOTION_DOT":0.00003549,"MEAN_MOTION_DDOT":0},{"OBJECT_NAME":"FLOCK 4H-6","OBJECT_ID":"2025-276AV","EPOCH":"2026-07-12T17:59:06.185760","CLASSIFICATION_TYPE":"U","MEAN_MOTION":15.20586674,"ECCENTRICITY":0.0002218,"INCLINATION":97.4225,"RA_OF_ASC_NODE":267.0976,"ARG_OF_PERICENTER":214.0805,"MEAN_ANOMALY":146.0288,"EPHEMERIS_TYPE":0,"NORAD_CAT_ID":66709,"ELEMENT_SET_NO":999,"REV_AT_EPOCH":3431,"BSTAR":0.00020032,"MEAN_MOTION_DOT":0.0000432,"MEAN_MOTION_DDOT":0},{"OBJECT_NAME":"FLOCK 4H-7","OBJECT_ID":"2025-276AW","EPOCH":"2026-07-12T17:32:21.361920","CLASSIFICATION_TYPE":"U","MEAN_MOTION":15.20360538,"ECCENTRICITY":0.000077,"INCLINATION":97.4184,"RA_OF_ASC_NODE":266.8386,"ARG_OF_PERICENTER":325.4484,"MEAN_ANOMALY":34.6701,"EPHEMERIS_TYPE":0,"NORAD_CAT_ID":66710,"ELEMENT_SET_NO":999,"REV_AT_EPOCH":3430,"BSTAR":0.00018956,"MEAN_MOTION_DOT":0.00004057,"MEAN_MOTION_DDOT":0},{"OBJECT_NAME":"FLOCK 4H-8","OBJECT_ID":"2025-276AX","EPOCH":"2026-07-12T18:54:15.646176","CLASSIFICATION_TYPE":"U","MEAN_MOTION":15.20469615,"ECCENTRICITY":0.0001882,"INCLINATION":97.4223,"RA_OF_ASC_NODE":267.0429,"ARG_OF_PERICENTER":286.322,"MEAN_ANOMALY":73.7808,"EPHEMERIS_TYPE":0,"NORAD_CAT_ID":66711,"ELEMENT_SET_NO":999,"REV_AT_EPOCH":3431,"BSTAR":0.00019454,"MEAN_MOTION_DOT":0.00004179,"MEAN_MOTION_DDOT":0},{"OBJECT_NAME":"FLOCK 4H-9","OBJECT_ID":"2025-276AY","EPOCH":"2026-07-12T17:40:04.511712","CLASSIFICATION_TYPE":"U","MEAN_MOTION":15.20767374,"ECCENTRICITY":0.0002235,"INCLINATION":97.4213,"RA_OF_ASC_NODE":267.0859,"ARG_OF_PERICENTER":224.9821,"MEAN_ANOMALY":135.1234,"EPHEMERIS_TYPE":0,"NORAD_CAT_ID":66712,"ELEMENT_SET_NO":999,"REV_AT_EPOCH":3431,"BSTAR":0.00019481,"MEAN_MOTION_DOT":0.00004222,"MEAN_MOTION_DDOT":0},{"OBJECT_NAME":"FLOCK 4H-10","OBJECT_ID":"2025-276AZ","EPOCH":"2026-07-12T15:04:58.156032","CLASSIFICATION_TYPE":"U","MEAN_MOTION":15.20142595,"ECCENTRICITY":0.000289,"INCLINATION":97.4191,"RA_OF_ASC_NODE":266.6924,"ARG_OF_PERICENTER":269.41,"MEAN_ANOMALY":90.6804,"EPHEMERIS_TYPE":0,"NORAD_CAT_ID":66713,"ELEMENT_SET_NO":999,"REV_AT_EPOCH":3428,"BSTAR":0.00019911,"MEAN_MOTION_DOT":0.00004238,"MEAN_MOTION_DDOT":0},{"OBJECT_NAME":"FLOCK 4H-11","OBJECT_ID":"2025-276BA","EPOCH":"2026-07-12T15:48:44.150112","CLASSIFICATION_TYPE":"U","MEAN_MOTION":15.23287126,"ECCENTRICITY":0.0001348,"INCLINATION":97.4197,"RA_OF_ASC_NODE":267.3035,"ARG_OF_PERICENTER":260.0185,"MEAN_ANOMALY":100.09,"EPHEMERIS_TYPE":0,"NORAD_CAT_ID":66714,"ELEMENT_SET_NO":999,"REV_AT_EPOCH":3432,"BSTAR":0.00036174,"MEAN_MOTION_DOT":0.00008511,"MEAN_MOTION_DDOT":0},{"OBJECT_NAME":"FLOCK 4H-12","OBJECT_ID":"2025-276BB","EPOCH":"2026-07-12T17:21:29.441088","CLASSIFICATION_TYPE":"U","MEAN_MOTION":15.20795624,"ECCENTRICITY":0.0001619,"INCLINATION":97.4188,"RA_OF_ASC_NODE":267.0101,"ARG_OF_PERICENTER":188.2436,"MEAN_ANOMALY":171.8773,"EPHEMERIS_TYPE":0,"NORAD_CAT_ID":66715,"ELEMENT_SET_NO":999,"REV_AT_EPOCH":3462,"BSTAR":0.00018393,"MEAN_MOTION_DOT":0.00003985,"MEAN_MOTION_DDOT":0},{"OBJECT_NAME":"FLOCK 4H-13","OBJECT_ID":"2025-276BC","EPOCH":"2026-07-12T16:39:24.301728","CLASSIFICATION_TYPE":"U","MEAN_MOTION":15.20895713,"ECCENTRICITY":0.0001778,"INCLINATION":97.4219,"RA_OF_ASC_NODE":267.1534,"ARG_OF_PERICENTER":144.7616,"MEAN_ANOMALY":215.3737,"EPHEMERIS_TYPE":0,"NORAD_CAT_ID":66716,"ELEMENT_SET_NO":999,"REV_AT_EPOCH":3431,"BSTAR":0.00020246,"MEAN_MOTION_DOT":0.00004407,"MEAN_MOTION_DDOT":0},{"OBJECT_NAME":"FLOCK 4H-14","OBJECT_ID":"2025-276BD","EPOCH":"2026-07-12T18:52:56.790624","CLASSIFICATION_TYPE":"U","MEAN_MOTION":15.21346896,"ECCENTRICITY":0.0001646,"INCLINATION":97.4203,"RA_OF_ASC_NODE":267.2902,"ARG_OF_PERICENTER":143.298,"MEAN_ANOMALY":216.8368,"EPHEMERIS_TYPE":0,"NORAD_CAT_ID":66717,"ELEMENT_SET_NO":999,"REV_AT_EPOCH":3358,"BSTAR":0.00019172,"MEAN_MOTION_DOT":0.00004225,"MEAN_MOTION_DDOT":0}]}
