FLOCK 4G-17             
1 62681U 25009CA  26193.77384154  .00007805  00000+0  27089-3 0  9997
2 62681  97.3927 275.0118 0003803 223.6555 136.4385 15.30053641140461
FLOCK 4G-33             
1 62685U 25009CE  26193.76239088  .00003941  00000+0  15712-3 0  9992
2 62685  97.3944 273.3437 0004429 224.2352 135.8532 15.25782435 82709
FLOCK 4H-1              
1 66704U 25276AQ  26193.64575235  .00003630  00000+0  16766-3 0  9993
2 66704  97.4175 266.9317 0001788 181.1906 178.9325 15.20832307 34308
FLOCK 4H-2              
1 66705U 25276AR  26193.75147166  .00004462  00000+0  20371-3 0  9995
2 66705  97.4171 267.0834 0001303 157.7249 202.4043 15.21104853 34324
FLOCK 4H-3              
1 66706U 25276AS  26193.67426787  .00004048  00000+0  18987-3 0  9996
2 66706  97.4241 266.9332 0002381 263.4983  96.5981 15.20224767 34296
FLOCK 4H-4              
1 66707U 25276AT  26193.77582285  .00004212  00000+0  19860-3 0  9998
2 66707  97.4223 266.9015 0003051 267.8071  92.2814 15.20017498 34307
FLOCK 4H-5              
1 66708U 25276AU  26193.63810282  .00003549  00000+0  16371-3 0  9991
2 66708  97.4175 266.9451 0001176 133.2525 226.8808 15.20884069 34308
FLOCK 4H-6              
1 66709U 25276AV  26193.74937715  .00004320  00000+0  20032-3 0  9992
2 66709  97.4225 267.0976 0002218 214.0805 146.0288 15.20586674 34313
FLOCK 4H-7              
1 66710U 25276AW  26193.73080280  .00004057  00000+0  18956-3 0  9998
2 66710  97.4184 266.8386 0000770 325.4484  34.6701 15.20360538 34302
FLOCK 4H-8              
1 66711U 25276AX  26193.78768109  .00004179  00000+0  19454-3 0  9996
2 66711  97.4223 267.0429 0001882 286.3220  73.7808 15.20469615 34315
FLOCK 4H-9              
1 66712U 25276AY  26193.73616333  .00004222  00000+0  19481-3 0  9992
2 66712  97.4213 267.0859 0002235 224.9821 135.1234 15.20767374 34319
FLOCK 4H-10             
1 66713U 25276AZ  26193.62845088  .00004238  00000+0  19911-3 0  9997
2 66713  97.4191 266.6924 0002890 269.4100  90.6804 15.20142595 34280
FLOCK 4H-11             
1 66714U 25276BA  26193.65884433  .00008511  00000+0  36174-3 0  9996
2 66714  97.4197 267.3035 0001348 260.0185 100.0900 15.23287126 34326
FLOCK 4H-12             
1 66715U 25276BB  26193.72325742  .00003985  00000+0  18393-3 0  9991
2 66715  97.4188 267.0101 0001619 188.2436 171.8773 15.20795624 34620
FLOCK 4H-13             
1 66716U 25276BC  26193.69403127  .00004407  00000+0  20246-3 0  9992
2 66716  97.4219 267.1534 0001778 144.7616 215.3737 15.20895713 34310
FLOCK 4H-14             
1 66717U 25276BD  26193.78676841  .00004225  00000+0  19172-3 0  9992
2 66717  97.4203 267.2902 0001646 143.2980 216.8368 15.21346896 33584
